STARLINK-5019           
1 55407U 23014S   26162.82408423  .00000711  00000+0  67413-4 0  9992
2 55407  69.9987 187.1961 0003634 270.0984  89.9759 14.98319833186157
STARLINK-5570           
1 55433U 23014AU  26162.57001010 -.00000443  00000+0 -29323-4 0  9996
2 55433  69.9990 227.6422 0003374 269.8395  90.2377 14.98329509185134
STARLINK-5646           
1 55461U 23015N   26162.26861397  .00000205  00000+0  16976-4 0  9990
2 55461  42.9974 160.2409 0000916 223.8533 136.2246 15.27578412185035
STARLINK-5692           
1 55483U 23015AL  26162.30058155  .00000100  00000+0  13161-4 0  9996
2 55483  43.0012 170.9150 0001406 262.1415  97.9277 15.27577433184910
AMAZONAS NEXUS          
1 55508U 23017A   26162.53978399 -.00000266  00000+0  00000+0 0  9999
2 55508   0.0377  34.4009 0005033  30.2444 328.5655  1.00266544  6985
STARLINK-5728           
1 55588U 23020V   26161.81796529 -.00000507  00000+0 -89109-5 0  9996
2 55588  43.0032 199.4307 0001450 284.0569  76.0122 15.27577127183152
STARLINK-5719           
1 55609U 23020AS  26162.35649253 -.00000236  00000+0  93047-6 0  9996
2 55609  42.9995 185.3196 0001240 264.9886  95.0824 15.27575378183367
STARLINK-5498           
1 55633U 23021F   26162.85490471  .00000015  00000+0  90658-5 0  9993
2 55633  69.9992 327.0146 0003272 268.9394  91.1390 14.98329574182406
STARLINK-5267           
1 55655U 23021AD  26162.76684570  .00001163  00000+0  10528-3 0  9993
2 55655  69.9993 287.3617 0003218 270.0121  90.0670 14.98322034183363
STARLINK-5324           
1 55677U 23021BB  26162.72068746  .00000037  00000+0  10923-4 0  9993
2 55677  69.9995 267.3249 0003099 270.2096  89.8707 14.98328570183861
STARLINK-5611           
1 55761U 23028W   26162.92207432  .00000141  00000+0  19641-4 0  9995
2 55761  69.9993 347.0486 0003000 268.5178  91.5638 14.98330736180648
STARLINK-5826           
1 55782U 23028AT  26162.76746093 -.00000206  00000+0 -94452-5 0  9999
2 55782  69.9998 327.4341 0002818 266.1430  93.9407 14.98328748181112
ONEWEB-0641             
1 55805U 23029K   26162.94744535 -.00000039  00000+0 -13071-3 0  9995
2 55805  87.9172 306.0087 0001710 101.5552 258.5773 13.19724642158225
ONEWEB-0664             
1 55824U 23029AE  26162.81220401  .00000023  00000+0  24761-4 0  9993
2 55824  87.9179 275.5542 0001882  85.9053 274.2295 13.20770012160434
STARLINK-5859           
1 55915U 23037B   26162.93951961  .00000838  00000+0  78048-4 0  9999
2 55915  70.0000  66.8708 0003059 269.5130  90.5679 14.98328126178288
STARLINK-5882           
1 55936U 23037Y   26162.93069443 -.00000314  00000+0 -18492-4 0  9995
2 55936  69.9994  26.6793 0002941 270.8123  89.2699 14.98330710178597
