[ {"OBJECT_NAME": "STARLINK-5019", "OBJECT_ID": "2023-014S", "EPOCH": "2026-06-11T19:46:40.877472", "MEAN_MOTION": 14.98319833, "ECCENTRICITY": 0.00036342, "INCLINATION": 69.9987, "RA_OF_ASC_NODE": 187.1961, "ARG_OF_PERICENTER": 270.0984, "MEAN_ANOMALY": 89.9759, "EPHEMERIS_TYPE": 0, "CLASSIFICATION_TYPE": "U", "NORAD_CAT_ID": 55407, "ELEMENT_SET_NO": 999, "REV_AT_EPOCH": 18615, "BSTAR": 6.7413044e-05, "MEAN_MOTION_DOT": 7.11e-06, "MEAN_MOTION_DDOT": 0}, {"OBJECT_NAME": "STARLINK-5570", "OBJECT_ID": "2023-014AU", "EPOCH": "2026-06-11T13:40:48.872640", "MEAN_MOTION": 14.98329509, "ECCENTRICITY": 0.0003374, "INCLINATION": 69.999, "RA_OF_ASC_NODE": 227.6422, "ARG_OF_PERICENTER": 269.8395, "MEAN_ANOMALY": 90.2377, "EPHEMERIS_TYPE": 0, "CLASSIFICATION_TYPE": "U", "NORAD_CAT_ID": 55433, "ELEMENT_SET_NO": 999, "REV_AT_EPOCH": 18513, "BSTAR": -2.9323e-05, "MEAN_MOTION_DOT": -4.43e-06, "MEAN_MOTION_DDOT": 0}, {"OBJECT_NAME": "STARLINK-5646", "OBJECT_ID": "2023-015N", "EPOCH": "2026-06-11T06:26:48.247008", "MEAN_MOTION": 15.27578412, "ECCENTRICITY": 9.16e-05, "INCLINATION": 42.9974, "RA_OF_ASC_NODE": 160.2409, "ARG_OF_PERICENTER": 223.8533, "MEAN_ANOMALY": 136.2246, "EPHEMERIS_TYPE": 0, "CLASSIFICATION_TYPE": "U", "NORAD_CAT_ID": 55461, "ELEMENT_SET_NO": 999, "REV_AT_EPOCH": 18503, "BSTAR": 1.6976e-05, "MEAN_MOTION_DOT": 2.05e-06, "MEAN_MOTION_DDOT": 0}, {"OBJECT_NAME": "STARLINK-5692", "OBJECT_ID": "2023-015AL", "EPOCH": "2026-06-11T07:12:50.245920", "MEAN_MOTION": 15.27577433, "ECCENTRICITY": 0.0001406, "INCLINATION": 43.0012, "RA_OF_ASC_NODE": 170.915, "ARG_OF_PERICENTER": 262.1415, "MEAN_ANOMALY": 97.9277, "EPHEMERIS_TYPE": 0, "CLASSIFICATION_TYPE": "U", "NORAD_CAT_ID": 55483, "ELEMENT_SET_NO": 999, "REV_AT_EPOCH": 18491, "BSTAR": 1.3161e-05, "MEAN_MOTION_DOT": 1e-06, "MEAN_MOTION_DDOT": 0}, {"OBJECT_NAME": "AMAZONAS NEXUS", "OBJECT_ID": "2023-017A", "EPOCH": "2026-06-11T12:57:17.336736", "MEAN_MOTION": 1.00266544, "ECCENTRICITY": 0.00050339, "INCLINATION": 0.0377, "RA_OF_ASC_NODE": 34.4009, "ARG_OF_PERICENTER": 30.2444, "MEAN_ANOMALY": 328.5655, "EPHEMERIS_TYPE": 0, "CLASSIFICATION_TYPE": "U", "NORAD_CAT_ID": 55508, "ELEMENT_SET_NO": 999, "REV_AT_EPOCH": 698, "BSTAR": 0, "MEAN_MOTION_DOT": -2.66e-06, "MEAN_MOTION_DDOT": 0}, {"OBJECT_NAME": "STARLINK-5728", "OBJECT_ID": "2023-020V", "EPOCH": "2026-06-10T19:37:52.201056", "MEAN_MOTION": 15.27577127, "ECCENTRICITY": 0.00014507, "INCLINATION": 43.0032, "RA_OF_ASC_NODE": 199.4307, "ARG_OF_PERICENTER": 284.0569, "MEAN_ANOMALY": 76.0122, "EPHEMERIS_TYPE": 0, "CLASSIFICATION_TYPE": "U", "NORAD_CAT_ID": 55588, "ELEMENT_SET_NO": 999, "REV_AT_EPOCH": 18315, "BSTAR": -8.910865e-06, "MEAN_MOTION_DOT": -5.07e-06, "MEAN_MOTION_DDOT": 0}, {"OBJECT_NAME": "STARLINK-5719", "OBJECT_ID": "2023-020AS", "EPOCH": "2026-06-11T08:33:20.954592", "MEAN_MOTION": 15.27575378, "ECCENTRICITY": 0.000124, "INCLINATION": 42.9995, "RA_OF_ASC_NODE": 185.3196, "ARG_OF_PERICENTER": 264.9886, "MEAN_ANOMALY": 95.0824, "EPHEMERIS_TYPE": 0, "CLASSIFICATION_TYPE": "U", "NORAD_CAT_ID": 55609, "ELEMENT_SET_NO": 999, "REV_AT_EPOCH": 18336, "BSTAR": 9.3047e-07, "MEAN_MOTION_DOT": -2.36e-06, "MEAN_MOTION_DDOT": 0}, {"OBJECT_NAME": "STARLINK-5498", "OBJECT_ID": "2023-021F", "EPOCH": "2026-06-11T20:31:03.766944", "MEAN_MOTION": 14.98329574, "ECCENTRICITY": 0.00032728, "INCLINATION": 69.9992, "RA_OF_ASC_NODE": 327.0146, "ARG_OF_PERICENTER": 268.9394, "MEAN_ANOMALY": 91.139, "EPHEMERIS_TYPE": 0, "CLASSIFICATION_TYPE": "U", "NORAD_CAT_ID": 55633, "ELEMENT_SET_NO": 999, "REV_AT_EPOCH": 18240, "BSTAR": 9.06582e-06, "MEAN_MOTION_DOT": 1.5e-07, "MEAN_MOTION_DDOT": 0}, {"OBJECT_NAME": "STARLINK-5267", "OBJECT_ID": "2023-021AD", "EPOCH": "2026-06-11T18:24:15.468480", "MEAN_MOTION": 14.98322034, "ECCENTRICITY": 0.00032185, "INCLINATION": 69.9993, "RA_OF_ASC_NODE": 287.3617, "ARG_OF_PERICENTER": 270.0121, "MEAN_ANOMALY": 90.067, "EPHEMERIS_TYPE": 0, "CLASSIFICATION_TYPE": "U", "NORAD_CAT_ID": 55655, "ELEMENT_SET_NO": 999, "REV_AT_EPOCH": 18336, "BSTAR": 0.00010527527, "MEAN_MOTION_DOT": 1.163e-05, "MEAN_MOTION_DDOT": 0}, {"OBJECT_NAME": "STARLINK-5324", "OBJECT_ID": "2023-021BB", "EPOCH": "2026-06-11T17:17:47.396544", "MEAN_MOTION": 14.9832857, "ECCENTRICITY": 0.00030991, "INCLINATION": 69.9995, "RA_OF_ASC_NODE": 267.3249, "ARG_OF_PERICENTER": 270.2096, "MEAN_ANOMALY": 89.8707, "EPHEMERIS_TYPE": 0, "CLASSIFICATION_TYPE": "U", "NORAD_CAT_ID": 55677, "ELEMENT_SET_NO": 999, "REV_AT_EPOCH": 18386, "BSTAR": 1.0923422e-05, "MEAN_MOTION_DOT": 3.7e-07, "MEAN_MOTION_DDOT": 0}, {"OBJECT_NAME": "STARLINK-5611", "OBJECT_ID": "2023-028W", "EPOCH": "2026-06-11T22:07:47.221248", "MEAN_MOTION": 14.98330736, "ECCENTRICITY": 0.00030002, "INCLINATION": 69.9993, "RA_OF_ASC_NODE": 347.0486, "ARG_OF_PERICENTER": 268.5178, "MEAN_ANOMALY": 91.5638, "EPHEMERIS_TYPE": 0, "CLASSIFICATION_TYPE": "U", "NORAD_CAT_ID": 55761, "ELEMENT_SET_NO": 999, "REV_AT_EPOCH": 18064, "BSTAR": 1.9641035e-05, "MEAN_MOTION_DOT": 1.41e-06, "MEAN_MOTION_DDOT": 0}, {"OBJECT_NAME": "STARLINK-5826", "OBJECT_ID": "2023-028AT", "EPOCH": "2026-06-11T18:25:08.624352", "MEAN_MOTION": 14.98328748, "ECCENTRICITY": 0.00028187, "INCLINATION": 69.9998, "RA_OF_ASC_NODE": 327.4341, "ARG_OF_PERICENTER": 266.143, "MEAN_ANOMALY": 93.9407, "EPHEMERIS_TYPE": 0, "CLASSIFICATION_TYPE": "U", "NORAD_CAT_ID": 55782, "ELEMENT_SET_NO": 999, "REV_AT_EPOCH": 18111, "BSTAR": -9.445228e-06, "MEAN_MOTION_DOT": -2.06e-06, "MEAN_MOTION_DDOT": 0}, {"OBJECT_NAME": "ONEWEB-0641", "OBJECT_ID": "2023-029K", "EPOCH": "2026-06-11T22:44:19.278240", "MEAN_MOTION": 13.19724642, "ECCENTRICITY": 0.00017105, "INCLINATION": 87.9172, "RA_OF_ASC_NODE": 306.0087, "ARG_OF_PERICENTER": 101.5552, "MEAN_ANOMALY": 258.5773, "EPHEMERIS_TYPE": 0, "CLASSIFICATION_TYPE": "U", "NORAD_CAT_ID": 55805, "ELEMENT_SET_NO": 999, "REV_AT_EPOCH": 15822, "BSTAR": -0.00013070753, "MEAN_MOTION_DOT": -3.9e-07, "MEAN_MOTION_DDOT": 0}, {"OBJECT_NAME": "ONEWEB-0664", "OBJECT_ID": "2023-029AE", "EPOCH": "2026-06-11T19:29:34.426464", "MEAN_MOTION": 13.20770012, "ECCENTRICITY": 0.00018822, "INCLINATION": 87.9179, "RA_OF_ASC_NODE": 275.5542, "ARG_OF_PERICENTER": 85.9053, "MEAN_ANOMALY": 274.2295, "EPHEMERIS_TYPE": 0, "CLASSIFICATION_TYPE": "U", "NORAD_CAT_ID": 55824, "ELEMENT_SET_NO": 999, "REV_AT_EPOCH": 16043, "BSTAR": 2.4761098e-05, "MEAN_MOTION_DOT": 2.3e-07, "MEAN_MOTION_DDOT": 0}, {"OBJECT_NAME": "STARLINK-5859", "OBJECT_ID": "2023-037B", "EPOCH": "2026-06-11T22:32:54.494304", "MEAN_MOTION": 14.98328126, "ECCENTRICITY": 0.00030592, "INCLINATION": 70, "RA_OF_ASC_NODE": 66.8708, "ARG_OF_PERICENTER": 269.513, "MEAN_ANOMALY": 90.5679, "EPHEMERIS_TYPE": 0, "CLASSIFICATION_TYPE": "U", "NORAD_CAT_ID": 55915, "ELEMENT_SET_NO": 999, "REV_AT_EPOCH": 17828, "BSTAR": 7.8048453e-05, "MEAN_MOTION_DOT": 8.38e-06, "MEAN_MOTION_DDOT": 0}, {"OBJECT_NAME": "STARLINK-5882", "OBJECT_ID": "2023-037Y", "EPOCH": "2026-06-11T22:20:11.998752", "MEAN_MOTION": 14.9833071, "ECCENTRICITY": 0.00029419, "INCLINATION": 69.9994, "RA_OF_ASC_NODE": 26.6793, "ARG_OF_PERICENTER": 270.8123, "MEAN_ANOMALY": 89.2699, "EPHEMERIS_TYPE": 0, "CLASSIFICATION_TYPE": "U", "NORAD_CAT_ID": 55936, "ELEMENT_SET_NO": 999, "REV_AT_EPOCH": 17859, "BSTAR": -1.8492231e-05, "MEAN_MOTION_DOT": -3.14e-06, "MEAN_MOTION_DDOT": 0}]